ORBCOMM FM37            
1 33064U 08031E   25137.71078395  .00001643  00000+0  24445-3 0  9991
2 33064  48.4387 128.5087 0005819 248.3765 281.8100 14.79672929909533
ORBCOMM FM40            
1 33065U 08031F   25138.40417307  .00003042  00000+0  40699-3 0  9993
2 33065  48.4402 109.7437 0006982 262.4817 232.6679 14.81898921910182
VESSELSAT 1             
1 37840U 11058C   25138.05154712  .00000394  00000+0  69888-4 0  9999
2 37840  19.9624 276.2404 0013544 214.8984 145.0532 14.11348960702278
ORBCOMM FM109           
1 40086U 14040A   25138.17338500  .00000540  00000+0  15258-3 0  9995
2 40086  47.0017 158.0388 0002255 231.3545 128.7139 14.58131851576803
ORBCOMM FM107           
1 40087U 14040B   25138.47746302  .00000595  00000+0  16417-3 0  9990
2 40087  47.0031 157.5786 0000905 204.0983 155.9861 14.58197993576846
ORBCOMM FM106           
1 40088U 14040C   25138.24612964  .00001172  00000+0  22735-3 0  9994
2 40088  47.0618 343.1700 0017407 286.6978  73.2002 14.69385415579282
ORBCOMM FM111           
1 40089U 14040D   25138.50547636  .00002346  00000+0  28713-3 0  9993
2 40089  47.0001 196.0913 0029604  48.3518 311.9907 14.86160612585816
ORBCOMM FM104           
1 40090U 14040E   25138.50184971  .00000567  00000+0  16368-3 0  9990
2 40090  47.0038 190.7151 0015423  68.0304 292.2219 14.56610531576396
